STARLINK-1776
1 16682C 20073N   21326.15069152  .00002827  00000-0  18939-3 0  3267
2 16682  53.0525  98.0643 0001343  79.5866 340.3761 15.06398734    11
